STARLINK-2354_new
1 17894C 21021AL  21326.17847071 -.00024229  00000-0 -16233-2 0  3269
2 17894  53.0547 112.9403 0001491  83.6777 204.5032 15.06425655    17
STARLINK-2354_old
1 27894C 21021AL  21325.06947200  .00000934  00000-0  62564-4 0  3255
2 27894  53.0548 117.9184 0001580  82.5904 308.0781 15.06408028    14
